NORAD_CAT_ID,OBJECT_NAME,OBJECT_TYPE,EPOCH,MEAN_MOTION,ECCENTRICITY,INCLINATION,RA_OF_ASC_NODE,ARG_OF_PERICENTER,MEAN_ANOMALY,BSTAR,MEAN_MOTION_DOT,MEAN_MOTION_DDOT,TLE_LINE0,TLE_LINE1,TLE_LINE2,SEMIMAJOR_AXIS,PERIOD,APOGEE,PERIGEE,DECAYED
55646.0,STARLINK-5104,PAYLOAD,2024-01-07 03:40:13,14.98330457,0.0002693,70.0002,22.8651,260.1908,99.8947,1.409e-05,7.5e-07,0.0,0 STARLINK-5104,1 55646U 23021U   24007.15293009  .00000075  00000-0  14090-4 0  9996,2 55646  70.0002  22.8651 0002693 260.1908  99.8947 14.98330457 49774,6950.191,96.107,573.928,570.185,0.0
55646.0,STARLINK-5104,PAYLOAD,2024-01-07 10:04:45,14.98335202,0.0002568,70.0001,22.1913,255.9968,104.0905,-7.3835e-05,-9.74e-06,0.0,0 STARLINK-5104,1 55646U 23021U   24007.41996945 -.00000974  00000-0 -73835-4 0  9996,2 55646  70.0001  22.1913 0002568 255.9968 104.0905 14.98335202 50112,6950.177,96.107,573.827,570.257,0.0
55646.0,STARLINK-5104,PAYLOAD,2024-01-08 03:42:14,14.98328847,0.0002639,70.0002,20.3399,256.9164,103.1701,-1.8753e-05,-3.17e-06,0.0,0 STARLINK-5104,1 55646U 23021U   24008.15433159 -.00000317  00000-0 -18753-4 0  9990,2 55646  70.0002  20.3399 0002639 256.9164 103.1701 14.98328847 49927,6950.196,96.107,573.896,570.227,0.0
55646.0,STARLINK-5104,PAYLOAD,2024-01-08 10:06:46,14.98330119,0.0002813,69.9997,19.6656,271.3671,88.7165,-1.4577e-05,-2.67e-06,0.0,0 STARLINK-5104,1 55646U 23021U   24008.42137102 -.00000267  00000-0 -14577-4 0  9993,2 55646  69.9997  19.6656 0002813 271.3671  88.7165 14.98330119 50268,6950.193,96.107,574.013,570.102,0.0
55646.0,STARLINK-5104,PAYLOAD,2024-01-09 05:20:23,14.9832849,0.0002858,69.9996,17.6449,267.199,92.8842,-1.8014e-05,-3.08e-06,0.0,0 STARLINK-5104,1 55646U 23021U   24009.22249220 -.00000308  00000-0 -18014-4 0  9993,2 55646  69.9996  17.6449 0002858 267.1990  92.8842 14.98328490 50088,6950.198,96.107,574.049,570.076,0.0
55646.0,STARLINK-5104,PAYLOAD,2024-01-09 10:08:47,14.98331731,0.0002762,69.9998,17.1403,265.3326,94.7518,2.6538e-05,2.24e-06,0.0,0 STARLINK-5104,1 55646U 23021U   24009.42276895  .00000224  00000-0  26538-4 0  9998,2 55646  69.9998  17.1403 0002762 265.3326  94.7518 14.98331731 50412,6950.188,96.107,573.972,570.133,0.0
55646.0,STARLINK-5104,PAYLOAD,2024-01-09 22:57:51,14.98329881,0.0002885,69.9998,15.7939,271.2395,88.8434,2.158e-05,1.65e-06,0.0,0 STARLINK-5104,1 55646U 23021U   24009.95685011  .00000165  00000-0  21580-4 0  9996,2 55646  69.9998  15.7939 0002885 271.2395  88.8434 14.98329881 50490,6950.193,96.107,574.063,570.053,0.0
55646.0,STARLINK-5104,PAYLOAD,2024-01-10 05:22:24,14.98329585,0.0002879,69.9999,15.12,270.1088,89.9741,1.6976e-05,1.1e-06,0.0,0 STARLINK-5104,1 55646U 23021U   24010.22389033  .00000110  00000-0  16976-4 0  9996,2 55646  69.9999  15.1200 0002879 270.1088  89.9741 14.98329585 50232,6950.194,96.107,574.06,570.058,0.0
55646.0,STARLINK-5104,PAYLOAD,2024-01-10 10:10:48,14.98332596,0.0002831,70.0,14.615,269.5781,90.5054,5.31e-05,5.41e-06,0.0,0 STARLINK-5104,1 55646U 23021U   24010.42416719  .00000541  00000-0  53100-4 0  9998,2 55646  70.0000  14.6150 0002831 269.5781  90.5054 14.98332596 50563,6950.185,96.107,574.017,570.082,0.0
55646.0,STARLINK-5104,PAYLOAD,2024-01-11 10:12:48,14.98332921,0.0002724,70.0004,12.0904,267.0581,93.0266,2.0578e-05,1.53e-06,0.0,0 STARLINK-5104,1 55646U 23021U   24011.42556674  .00000153  00000-0  20578-4 0  9996,2 55646  70.0004  12.0904 0002724 267.0581  93.0266 14.98332921 50417,6950.184,96.107,573.942,570.156,0.0
55646.0,STARLINK-5104,PAYLOAD,2024-01-12 10:14:50,14.9832898,0.0002623,70.0006,9.5657,263.4014,96.6847,-1.7613e-05,-3.03e-06,0.0,0 STARLINK-5104,1 55646U 23021U   24012.42696964 -.00000303  00000-0 -17613-4 0  9999,2 55646  70.0006   9.5657 0002623 263.4014  96.6847 14.98328980 50564,6950.196,96.107,573.884,570.238,0.0
55646.0,STARLINK-5104,PAYLOAD,2024-01-13 08:40:42,14.98329466,0.0002649,70.0008,7.2104,253.2896,106.7973,-6.3681e-06,-1.69e-06,0.0,0 STARLINK-5104,1 55646U 23021U   24013.36160833 -.00000169  00000-0 -63681-5 0  9991,2 55646  70.0008   7.2104 0002649 253.2896 106.7973 14.98329466 51004,6950.195,96.107,573.901,570.218,0.0
55646.0,STARLINK-5104,PAYLOAD,2024-01-14 03:54:20,14.98326088,0.0002691,70.0005,5.1892,262.0508,98.0346,-7.655e-06,-1.84e-06,0.0,0 STARLINK-5104,1 55646U 23021U   24014.16273153 -.00000184  00000-0 -76550-5 0  9996,2 55646  70.0005   5.1892 0002691 262.0508  98.0346 14.98326088 50820,6950.205,96.107,573.94,570.2,0.0
55646.0,STARLINK-5104,PAYLOAD,2024-01-14 08:42:44,14.98329521,0.0002759,70.0001,4.6837,262.7835,97.301,-1.6291e-06,-1.12e-06,0.0,0 STARLINK-5104,1 55646U 23021U   24014.36300944 -.00000112  00000-0 -16291-5 0  9994,2 55646  70.0001   4.6837 0002759 262.7835  97.3010 14.98329521 51156,6950.194,96.107,573.977,570.142,0.0
55646.0,STARLINK-5104,PAYLOAD,2024-01-15 03:56:20,14.98329658,0.0002868,70.0003,2.6644,265.0049,95.0783,2.8144e-06,-5.9e-07,0.0,0 STARLINK-5104,1 55646U 23021U   24015.16412968 -.00000059  00000-0  28144-5 0  9992,2 55646  70.0003   2.6644 0002868 265.0049  95.0783 14.98329658 50978,6950.194,96.107,574.052,570.066,0.0
55646.0,STARLINK-5104,PAYLOAD,2024-01-15 08:44:44,14.9833434,0.0002818,70.0003,2.1594,263.7805,96.3033,5.9147e-05,6.13e-06,0.0,0 STARLINK-5104,1 55646U 23021U   24015.36440489  .00000613  00000-0  59147-4 0  9994,2 55646  70.0003   2.1594 0002818 263.7805  96.3033 14.98334340 51301,6950.179,96.107,574.003,570.086,0.0
55646.0,STARLINK-5104,PAYLOAD,2024-01-15 23:09:57,14.98326727,0.0002665,70.0008,0.6449,262.6214,97.4643,3.3217e-06,-5.3e-07,0.0,0 STARLINK-5104,1 55646U 23021U   24015.96525128 -.00000053  00000-0  33217-5 0  9994,2 55646  70.0008   0.6449 0002665 262.6214  97.4643 14.98326727 51095,6950.203,96.107,573.92,570.216,0.0
55646.0,STARLINK-5104,PAYLOAD,2024-01-16 08:46:46,14.98328604,0.0002771,70.0008,359.6335,269.4836,90.6005,-9.2642e-06,-2.03e-06,0.0,0 STARLINK-5104,1 55646U 23021U   24016.36581149 -.00000203  00000-0 -92642-5 0  9999,2 55646  70.0008 359.6335 0002771 269.4836  90.6005 14.98328604 51452,6950.197,96.107,573.988,570.136,0.0
55646.0,STARLINK-5104,PAYLOAD,2024-01-17 04:00:22,14.98331712,0.0002883,70.0006,357.6139,269.6247,90.4581,2.8985e-05,2.53e-06,0.0,0 STARLINK-5104,1 55646U 23021U   24017.16692770  .00000253  00000-0  28985-4 0  9992,2 55646  70.0006 357.6139 0002883 269.6247  90.4581 14.98331712 51273,6950.188,96.107,574.056,570.049,0.0
55646.0,STARLINK-5104,PAYLOAD,2024-01-17 08:48:46,14.98340156,0.0002836,70.0006,357.1089,269.3147,90.7687,6.2976e-05,6.59e-06,0.0,0 STARLINK-5104,1 55646U 23021U   24017.36720062  .00000659  00000-0  62976-4 0  9998,2 55646  70.0006 357.1089 0002836 269.3147  90.7687 14.98340156 51302,6950.161,96.106,573.998,570.055,0.0
55646.0,STARLINK-5104,PAYLOAD,2024-01-18 04:02:23,14.9832523,0.0002798,70.0014,355.0918,243.0942,116.9932,8.6872e-06,1.1e-07,0.0,0 STARLINK-5104,1 55646U 23021U   24018.16833020  .00000011  00000-0  86872-5 0  9990,2 55646  70.0014 355.0918 0002798 243.0942 116.9932 14.98325230 51421,6950.208,96.107,574.017,570.128,0.0
55646.0,STARLINK-5104,PAYLOAD,2024-01-18 08:50:47,14.98326372,0.0002828,70.0006,354.5849,255.702,104.3825,2.0553e-05,1.52e-06,0.0,0 STARLINK-5104,1 55646U 23021U   24018.36860984  .00000152  00000-0  20553-4 0  9990,2 55646  70.0006 354.5849 0002828 255.7020 104.3825 14.98326372 51756,6950.204,96.107,574.035,570.104,0.0
55646.0,STARLINK-5104,PAYLOAD,2024-01-19 04:04:24,14.98332813,0.0002821,70.0011,352.5646,263.6596,96.4242,-1.6888e-05,-2.94e-06,0.0,0 STARLINK-5104,1 55646U 23021U   24019.16972658 -.00000294  00000-0 -16888-4 0  9996,2 55646  70.0011 352.5646 0002821 263.6596  96.4242 14.98332813 51575,6950.184,96.107,574.01,570.089,0.0
55646.0,STARLINK-5104,PAYLOAD,2024-01-19 08:52:48,14.98336635,0.0002764,70.0014,352.06,259.9903,100.0944,3.7873e-05,3.59e-06,0.0,0 STARLINK-5104,1 55646U 23021U   24019.37000165  .00000359  00000-0  37873-4 0  9991,2 55646  70.0014 352.0600 0002764 259.9903 100.0944 14.98336635 51903,6950.172,96.107,573.958,570.116,0.0
55646.0,STARLINK-5104,PAYLOAD,2024-01-19 23:18:01,14.98325249,0.0002657,70.002,350.5452,252.1723,107.9147,0.00010565,1.168e-05,0.0,0 STARLINK-5104,1 55646U 23021U   24019.97084518  .00001168  00000-0  10565-3 0  9998,2 55646  70.0020 350.5452 0002657 252.1723 107.9147 14.98325249 51993,6950.208,96.107,573.919,570.226,0.0
55646.0,STARLINK-5104,PAYLOAD,2024-01-20 04:06:25,14.98324477,0.0002702,70.0017,350.0402,248.1459,111.9413,7.9063e-05,8.5e-06,0.0,0 STARLINK-5104,1 55646U 23021U   24020.17112672  .00000850  00000-0  79063-4 0  9991,2 55646  70.0017 350.0402 0002702 248.1459 111.9413 14.98324477 51725,6950.21,96.107,573.953,570.197,0.0
55646.0,STARLINK-5104,PAYLOAD,2024-01-20 07:18:41,14.98325954,0.0002999,70.0006,349.7014,264.7656,95.3161,0.0001141,1.269e-05,0.0,0 STARLINK-5104,1 55646U 23021U   24020.30464542  .00001269  00000-0  11410-3 0  9998,2 55646  70.0006 349.7014 0002999 264.7656  95.3161 14.98325954 52040,6950.205,96.107,574.155,569.986,0.0
55646.0,STARLINK-5104,PAYLOAD,2024-01-21 04:08:26,14.98329655,0.0002981,70.0007,347.5142,266.7187,93.3631,-6.56e-05,-8.76e-06,0.0,0 STARLINK-5104,1 55646U 23021U   24021.17252829 -.00000876  00000-0 -65600-4 0  9993,2 55646  70.0007 347.5142 0002981 266.7187  93.3631 14.98329655 51873,6950.194,96.107,574.131,569.987,0.0
55646.0,STARLINK-5104,PAYLOAD,2024-01-21 05:44:34,14.98331088,0.0002951,70.0007,347.3458,266.2413,93.8409,-4.4434e-05,-6.23e-06,0.0,0 STARLINK-5104,1 55646U 23021U   24021.23928677 -.00000623  00000-0 -44434-4 0  9993,2 55646  70.0007 347.3458 0002951 266.2413  93.8409 14.98331088 52181,6950.19,96.107,574.106,570.004,0.0
55646.0,STARLINK-5104,PAYLOAD,2024-01-21 21:45:54,14.98328251,0.0002758,70.0014,345.6632,263.6623,96.4222,1.2074e-05,5.1e-07,0.0,0 STARLINK-5104,1 55646U 23021U   24021.90688613  .00000051  00000-0  12074-4 0  9998,2 55646  70.0014 345.6632 0002758 263.6623  96.4222 14.98328251 52284,6950.198,96.107,573.98,570.146,0.0
